{
  "type": "FeatureCollection",
  "features": [
    {
      "type": "Feature",
      "properties": {
        "norad_id": 66513,
        "name": "STARLINK-35692",
        "group": "last-30-days",
        "lat": -31.89527150600918,
        "lon": -1.6445133343049558,
        "alt_km": 417.0988515053932,
        "timestamp": "2025-12-10T18:56:58.832668+00:00",
        "meta_object_name": "STARLINK-35692",
        "meta_object_id": "2025-263AE",
        "meta_epoch": "2025-12-10T12:00:02.998944",
        "meta_mean_motion": 15.50557994,
        "meta_eccentricity": 0.0001553,
        "meta_inclination": 43.0005,
        "meta_ra_of_asc_node": 138.1493,
        "meta_arg_of_pericenter": 271.7099,
        "meta_mean_anomaly": 140.9192,
        "meta_ephemeris_type": 0,
        "meta_classification_type": "U",
        "meta_norad_cat_id": 66513,
        "meta_element_set_no": 999,
        "meta_rev_at_epoch": 527,
        "meta_bstar": 0.0004695,
        "meta_mean_motion_dot": 0.00027277,
        "meta_mean_motion_ddot": 0,
        "tle_line1": "1 66513U 25263AE  25344.50003471  .00027277  00000+0  46950-3 0  9998",
        "tle_line2": "2 66513  43.0005 138.1493 0001553 271.7099 140.9192 15.50557994  5273"
      },
      "geometry": {
        "type": "Point",
        "coordinates": [
          -1.6445133343049558,
          -31.89527150600918
        ]
      }
    },
    {
      "type": "Feature",
      "properties": {
        "norad_id": 66514,
        "name": "SENTINEL-6B",
        "group": "last-30-days",
        "lat": 58.06959641306349,
        "lon": -59.0455403260282,
        "alt_km": 1333.5765716622464,
        "timestamp": "2025-12-10T18:56:58.832681+00:00",
        "meta_object_name": "SENTINEL-6B",
        "meta_object_id": "2025-264A",
        "meta_epoch": "2025-12-08T23:22:28.384896",
        "meta_mean_motion": 12.84031992,
        "meta_eccentricity": 0.00210406,
        "meta_inclination": 66.0385,
        "meta_ra_of_asc_node": 170.2707,
        "meta_arg_of_pericenter": 268.23,
        "meta_mean_anomaly": 91.6307,
        "meta_ephemeris_type": 0,
        "meta_classification_type": "U",
        "meta_norad_cat_id": 66514,
        "meta_element_set_no": 999,
        "meta_rev_at_epoch": 280,
        "meta_bstar": 0.000106025,
        "meta_mean_motion_dot": -3.6e-07,
        "meta_mean_motion_ddot": 0,
        "tle_line1": "1 66514U 25264A   25342.97393964 -.00000036  00000+0  10602-3 0  9998",
        "tle_line2": "2 66514  66.0385 170.2707 0021040 268.2300  91.6307 12.84031992  2809"
      },
      "geometry": {
        "type": "Point",
        "coordinates": [
          -59.0455403260282,
          58.06959641306349
        ]
      }
    },
    {
      "type": "Feature",
      "properties": {
        "norad_id": 66516,
        "name": "STARLINK-35924",
        "group": "last-30-days",
        "lat": 24.239263032854062,
        "lon": 94.32197768546682,
        "alt_km": 414.88307225921017,
        "timestamp": "2025-12-10T18:56:58.832693+00:00",
        "meta_object_name": "STARLINK-35924",
        "meta_object_id": "2025-265A",
        "meta_epoch": "2025-12-10T12:00:02.998944",
        "meta_mean_motion": 15.50409941,
        "meta_eccentricity": 0.0001151,
        "meta_inclination": 42.9998,
        "meta_ra_of_asc_node": 67.1214,
        "meta_arg_of_pericenter": 272.7906,
        "meta_mean_anomaly": 306.8116,
        "meta_ephemeris_type": 0,
        "meta_classification_type": "U",
        "meta_norad_cat_id": 66516,
        "meta_element_set_no": 999,
        "meta_rev_at_epoch": 461,
        "meta_bstar": -0.028331,
        "meta_mean_motion_dot": -0.01496513,
        "meta_mean_motion_ddot": 0,
        "tle_line1": "1 66516U 25265A   25344.50003471 -.01496513  00000+0 -28331-1 0  9990",
        "tle_line2": "2 66516  42.9998  67.1214 0001151 272.7906 306.8116 15.50409941  4613"
      },
      "geometry": {
        "type": "Point",
        "coordinates": [
          94.32197768546682,
          24.239263032854062
        ]
      }
    },
    {
      "type": "Feature",
      "properties": {
        "norad_id": 66517,
        "name": "STARLINK-35937",
        "group": "last-30-days",
        "lat": 25.777889316632873,
        "lon": 96.639811858586,
        "alt_km": 411.55020686481384,
        "timestamp": "2025-12-10T18:56:58.832703+00:00",
        "meta_object_name": "STARLINK-35937",
        "meta_object_id": "2025-265B",
        "meta_epoch": "2025-12-10T12:00:02.998944",
        "meta_mean_motion": 15.50626308,
        "meta_eccentricity": 0.0001414,
        "meta_inclination": 42.9997,
        "meta_ra_of_asc_node": 67.1176,
        "meta_arg_of_pericenter": 274.8601,
        "meta_mean_anomaly": 306.6681,
        "meta_ephemeris_type": 0,
        "meta_classification_type": "U",
        "meta_norad_cat_id": 66517,
        "meta_element_set_no": 999,
        "meta_rev_at_epoch": 463,
        "meta_bstar": -0.0021974,
        "meta_mean_motion_dot": -0.00127392,
        "meta_mean_motion_ddot": 0,
        "tle_line1": "1 66517U 25265B   25344.50003471 -.00127392  00000+0 -21974-2 0  9993",
        "tle_line2": "2 66517  42.9997  67.1176 0001414 274.8601 306.6681 15.50626308  4632"
      },
      "geometry": {
        "type": "Point",
        "coordinates": [
          96.639811858586,
          25.777889316632873
        ]
      }
    },
    {
      "type": "Feature",
      "properties": {
        "norad_id": 66518,
        "name": "STARLINK-35962",
        "group": "last-30-days",
        "lat": 26.891081977072567,
        "lon": 98.39127632638368,
        "alt_km": 411.35251921804047,
        "timestamp": "2025-12-10T18:56:58.832715+00:00",
        "meta_object_name": "STARLINK-35962",
        "meta_object_id": "2025-265C",
        "meta_epoch": "2025-12-10T12:00:02.998944",
        "meta_mean_motion": 15.50652456,
        "meta_eccentricity": 0.0001355,
        "meta_inclination": 42.9996,
        "meta_ra_of_asc_node": 67.1132,
        "meta_arg_of_pericenter": 276.777,
        "meta_mean_anomaly": 306.6641,
        "meta_ephemeris_type": 0,
        "meta_classification_type": "U",
        "meta_norad_cat_id": 66518,
        "meta_element_set_no": 999,
        "meta_rev_at_epoch": 463,
        "meta_bstar": -0.0029936,
        "meta_mean_motion_dot": -0.00172597,
        "meta_mean_motion_ddot": 0,
        "tle_line1": "1 66518U 25265C   25344.50003471 -.00172597  00000+0 -29936-2 0  9997",
        "tle_line2": "2 66518  42.9996  67.1132 0001355 276.7770 306.6641 15.50652456  4635"
      },
      "geometry": {
        "type": "Point",
        "coordinates": [
          98.39127632638368,
          26.891081977072567
        ]
      }
    },
    {
      "type": "Feature",
      "properties": {
        "norad_id": 66519,
        "name": "STARLINK-35931",
        "group": "last-30-days",
        "lat": 27.976967468070253,
        "lon": 100.16704371158298,
        "alt_km": 411.3585481246537,
        "timestamp": "2025-12-10T18:56:58.832725+00:00",
        "meta_object_name": "STARLINK-35931",
        "meta_object_id": "2025-265D",
        "meta_epoch": "2025-12-10T12:00:02.998944",
        "meta_mean_motion": 15.50628515,
        "meta_eccentricity": 0.0001815,
        "meta_inclination": 42.9995,
        "meta_ra_of_asc_node": 67.1071,
        "meta_arg_of_pericenter": 277.8154,
        "meta_mean_anomaly": 307.55,
        "meta_ephemeris_type": 0,
        "meta_classification_type": "U",
        "meta_norad_cat_id": 66519,
        "meta_element_set_no": 999,
        "meta_rev_at_epoch": 463,
        "meta_bstar": -0.0022664,
        "meta_mean_motion_dot": -0.00131332,
        "meta_mean_motion_ddot": 0,
        "tle_line1": "1 66519U 25265D   25344.50003471 -.00131332  00000+0 -22664-2 0  9991",
        "tle_line2": "2 66519  42.9995  67.1071 0001815 277.8154 307.5500 15.50628515  4639"
      },
      "geometry": {
        "type": "Point",
        "coordinates": [
          100.16704371158298,
          27.976967468070253
        ]
      }
    },
    {
      "type": "Feature",
      "properties": {
        "norad_id": 66520,
        "name": "STARLINK-35952",
        "group": "last-30-days",
        "lat": 29.036971470421012,
        "lon": 101.9748927523725,
        "alt_km": 410.98251553285445,
        "timestamp": "2025-12-10T18:56:58.832735+00:00",
        "meta_object_name": "STARLINK-35952",
        "meta_object_id": "2025-265E",
        "meta_epoch": "2025-12-10T12:00:02.998944",
        "meta_mean_motion": 15.50632315,
        "meta_eccentricity": 0.0001369,
        "meta_inclination": 42.9997,
        "meta_ra_of_asc_node": 67.102,
        "meta_arg_of_pericenter": 282.5078,
        "meta_mean_anomaly": 304.7715,
        "meta_ephemeris_type": 0,
        "meta_classification_type": "U",
        "meta_norad_cat_id": 66520,
        "meta_element_set_no": 999,
        "meta_rev_at_epoch": 463,
        "meta_bstar": -0.0024094,
        "meta_mean_motion_dot": -0.00139465,
        "meta_mean_motion_ddot": 0,
        "tle_line1": "1 66520U 25265E   25344.50003471 -.00139465  00000+0 -24094-2 0  9997",
        "tle_line2": "2 66520  42.9997  67.1020 0001369 282.5078 304.7715 15.50632315  4639"
      },
      "geometry": {
        "type": "Point",
        "coordinates": [
          101.9748927523725,
          29.036971470421012
        ]
      }
    }
  ]
}